GALAXY 25 (G-25)        
1 24812U 97026A   22338.56514169  .00000004  00000+0  00000+0 0  9998
2 24812   4.1129  81.9218 0006844 199.4639  61.5425  1.00272628 93438
INTELSAT 5 (IS-5)       
1 24916U 97046A   22338.59438653 -.00000056  00000+0  00000+0 0  9999
2 24916   7.5904  59.8532 0005920 189.0140 204.6872  1.00274490 92681
GALAXY 11 (G-11)        
1 26038U 99071A   22338.37642031 -.00000154  00000+0  00000+0 0  9998
2 26038   3.4511  85.4887 0002072 214.7760 175.3202  1.00271121 84145
INTELSAT 9 (IS-9)       
1 26451U 00043A   22338.16975220 -.00000283  00000+0  00000+0 0  9997
2 26451   7.5759  60.0436 0004118 187.5514 196.4894  1.00273143 31205
INTELSAT 1R (IS-1R)     
1 26608U 00072A   22338.59387904 -.00000130  00000+0  00000+0 0  9997
2 26608   4.8247  79.0102 0000363 281.7053  83.5862  1.00272855 28389
INTELSAT 10 (IS-10)     
1 26766U 01019A   22338.55482597  .00000041  00000+0  00000+0 0  9994
2 26766   5.9819  71.8968 0004276 183.0286 195.9607  1.00273345 32688
INTELSAT 901 (IS-901)   
1 26824U 01024A   22338.27340959 -.00000194  00000+0  00000+0 0  9999
2 26824   0.0458  99.2558 0000775 198.7696 205.9734  1.00269790 10043
INTELSAT 902 (IS-902)   
1 26900U 01039A   22338.38496249 -.00000274  00000+0  00000+0 0  9995
2 26900   2.8320  87.0976 0003513 181.6324 252.9500  1.00271250 77755
INTELSAT 904 (IS-904)   
1 27380U 02007A   22338.24558571 -.00000206  00000+0  00000+0 0  9991
2 27380   3.6624  84.1147 0003123 173.1181 234.7232  1.00271245 38825
DIRECTV 5 (TEMPO 1)     
1 27426U 02023A   22338.57741157 -.00000046  00000+0  00000+0 0  9992
2 27426   1.5599  91.1543 0003425 166.7281 273.2481  1.00271920 75180
INTELSAT 905 (IS-905)   
1 27438U 02027A   22338.26855031 -.00000176  00000+0  00000+0 0  9996
2 27438   3.4849  84.8330 0002815 164.4299 255.9983  1.00271297 38428
GALAXY 3C (G-3C)        
1 27445U 02030A   22338.37607166 -.00000143  00000+0  00000+0 0  9998
2 27445   0.4115  91.7299 0001455 217.0474 164.9294  1.00271861 33559
INTELSAT 906 (IS-906)   
1 27513U 02041A   22338.53016113  .00000023  00000+0  00000+0 0  9996
2 27513   2.5018  88.5077 0004482 168.9500  70.8715  1.00272584 74084
GALAXY 12 (G-12)        
1 27715U 03013B   22338.55503847  .00000066  00000+0  00000+0 0  9994
2 27715   3.6961  83.7690 0001980 174.7691 245.6283  1.00272292 39158
GALAXY 23 (G-23)        
1 27854U 03034A   22338.56543024  .00000023  00000+0  00000+0 0  9996
2 27854   0.0065 343.0991 0002716 263.3825 269.4630  1.00271100 70800
GALAXY 13 (HORIZONS-1)  
1 27954U 03044A   22338.55713568  .00000058  00000+0  00000+0 0  9997
2 27954   0.0035   2.7355 0000157 186.0016 318.1725  1.00270932 33630
INTELSAT 10-02          
1 28358U 04022A   22338.28035659 -.00000002  00000+0  00000+0 0  9991
2 28358   0.0371  98.9977 0001353 200.0843 233.9318  1.00270966 67606
XM-3 (RHYTHM)           
1 28626U 05008A   22338.30625251 -.00000196  00000+0  00000+0 0  9994
2 28626   0.0205 129.8371 0001459  72.1244 256.2741  1.00266444 29682
DIRECTV 8               
1 28659U 05019A   22338.56722000  .00000011  00000+0  00000+0 0  9995
2 28659   0.0429 121.6306 0002857 129.9543 266.9329  1.00272035 64132
GALAXY 28 (G-28)        
1 28702U 05022A   22338.37720480 -.00000176  00000+0  00000+0 0  9990
2 28702   0.0538  79.6023 0002056 191.7309 208.6527  1.00271250 39041
GALAXY 14 (G-14)        
1 28790U 05030A   22338.22827135  .00000164  00000+0  00000+0 0  9991
2 28790   1.6917  90.3505 0001856 150.4118 307.3561  1.00269066 63367
GALAXY 15 (G-15)        
1 28884U 05041A   22338.55871816  .00000042  00000+0  00000+0 0  9993
2 28884   0.2449  92.3700 0004255 177.4047 239.6266  1.00308044 62673
SPACEWAY 2              
1 28903U 05046B   22338.54180288  .00000112  00000+0  00000+0 0  9993
2 28903   2.2927  86.2949 0001072 180.4997 222.7150  1.00270905 38400
GALAXY 16 (G-16)        
1 29236U 06023A   22338.37520000 -.00000118  00000+0  00000+0 0  9997
2 29236   0.0426 124.4599 0002919 132.4290 212.3542  1.00272198 60030
DIRECTV 9S              
1 29494U 06043A   22338.37476418 -.00000104  00000+0  00000+0 0  9993
2 29494   0.0152  36.8217 0003091 218.0217 212.0516  1.00271569 38446
XM-4 (BLUES)            
1 29520U 06049A   22338.30625251 -.00000196  00000+0  00000+0 0  9994
2 29520   0.0186 292.6757 0001779  29.3122 136.2536  1.00271023 38537
GALAXY 17 (G-17)        
1 31307U 07016B   22338.37685615 -.00000165  00000+0  00000+0 0  9998
2 31307   0.0254  37.8878 0003079 229.6856 210.2909  1.00272319 56868
DIRECTV 10              
1 31862U 07032A   22338.37450269 -.00000094  00000+0  00000+0 0  9998
2 31862   0.0309 143.3400 0000378  60.0850 261.7799  1.00271500 32659
SPACEWAY 3              
1 32018U 07036A   22338.37607166 -.00000142  00000+0  00000+0 0  9990
2 32018   0.6637  91.1053 0000349 349.1936  33.3101  1.00271239 33617
INTELSAT 11 (IS-11)     
1 32253U 07044B   22338.38635713 -.00000259  00000+0  00000+0 0  9999
2 32253   0.2201  94.0659 0003135 180.4213 254.7887  1.00271650 55559
HORIZONS-2              
1 32388U 07063B   22338.38025558 -.00000245  00000+0  00000+0 0  9994
2 32388   0.0150 314.2641 0002286 316.5759 225.4364  1.00276366 54878
DIRECTV 11              
1 32729U 08013A   22338.37520000 -.00000117  00000+0  00000+0 0  9998
2 32729   0.0478 126.6531 0000665 145.2500 197.1771  1.00271833 32656
GALAXY 18 (G-18)        
1 32951U 08024A   22338.37049309  .00000034  00000+0  00000+0 0  9992
2 32951   0.0440 122.2316 0003056 126.5841 194.7255  1.00271115 32903
INTELSAT 25 (IS-25)     
1 33153U 08034A   22338.38871059 -.00000215  00000+0  00000+0 0  9996
2 33153   0.0182 323.2911 0003156 293.9745 284.3638  1.00271455 52751
GALAXY 19 (G-19)        
1 33376U 08045A   22338.37563583 -.00000130  00000+0  00000+0 0  9990
2 33376   0.0469 119.6210 0002781 137.0906 214.6955  1.00271668 51961
FM-5                    
1 35493U 09034A   22338.37781495 -.00000191  00000+0  00000+0 0  9992
2 35493   0.0188 329.3970 0000307 233.1874 280.4749  1.00271912 33704
INTELSAT 14 (IS-14)     
1 36097U 09064A   22338.38600847 -.00000264  00000+0  00000+0 0  9999
2 36097   0.0227  59.6091 0002565 189.3297 278.2198  1.00271259 47662
INTELSAT 15 (IS-15)     
1 36106U 09067A   22338.57386043 -.00000176  00000+0  00000+0 0  9995
2 36106   0.0130 337.7841 0002571 284.4536 102.8776  1.00271587 28284
DIRECTV 12              
1 36131U 09075A   22338.37450269 -.00000094  00000+0  00000+0 0  9991
2 36131   0.0443 162.2566 0000029 187.4838 115.5502  1.00270025 33625
INTELSAT 16 (IS-16)     
1 36397U 10006A   22338.37981976 -.00000236  00000+0  00000+0 0  9993
2 36397   0.0116 328.2538 0002106 280.2205 245.2416  1.00271839 46710
XM-5                    
1 37185U 10053A   22338.37206206 -.00000014  00000+0  00000+0 0  9991
2 37185   0.0176 334.8817 0000496 186.7221 290.3244  1.00271130 44546
INTELSAT 17 (IS-17)     
1 37238U 10065B   22338.56615715  .00000007  00000+0  00000+0 0  9994
2 37238   0.0113 289.9632 0002441 326.9684  86.2580  1.00271674 40290
INTELSAT NEW DAWN       
1 37392U 11016A   22338.25674549  .00000164  00000+0  00000+0 0  9992
2 37392   0.0242 131.2300 0001304 121.4509 305.6216  1.00273684 40349
INTELSAT 18 (IS-18)     
1 37834U 11056A   22338.55798910  .00000062  00000+0  00000+0 0  9996
2 37834   0.0275  16.0000 0002155 229.3958 208.8352  1.00271020 40879
INTELSAT 22 (IS-22)     
1 38098U 12011A   22338.55666462 -.00000050  00000+0  00000+0 0  9995
2 38098   0.0104  93.3797 0002586 126.4818 125.9863  1.00272327 38878
INTELSAT 19 (IS-19)     
1 38356U 12030A   22338.59538623 -.00000047  00000+0  00000+0 0  9990
2 38356   0.0168   1.3080 0003279 255.5884 196.8444  1.00270262 37503
INTELSAT 20 (IS-20)     
1 38740U 12043A   22338.40867137 -.00000016  00000+0  00000+0 0  9992
2 38740   0.0057 112.1649 0003505  80.7618  95.9149  1.00270623 37809
INTELSAT 21 (IS-21)     
1 38749U 12045A   22338.38339352 -.00000276  00000+0  00000+0 0  9991
2 38749   0.0288  69.1554 0002265 178.5573 265.5061  1.00272431 37591
INTELSAT 23 (IS-23)     
1 38867U 12057A   22338.38443950 -.00000276  00000+0  00000+0 0  9995
2 38867   0.0157 291.7164 0000459 310.2364 276.6514  1.00268227 37003
FM-6                    
1 39360U 13058A   22338.37180057 -.00000008  00000+0  00000+0 0  9994
2 39360   0.0203 309.2358 0000379 209.9462 291.6971  1.00270975 33124
INTELSAT 30 (IS-30)     
1 40271U 14062A   22338.39556404 -.00000142  00000+0  00000+0 0  9997
2 40271   0.0108 324.3977 0002043 145.3164  10.8294  1.00271556 29645
DIRECTV 14              
1 40333U 14078B   22338.37520000 -.00000116  00000+0  00000+0 0  9995
2 40333   0.0397  87.1141 0000126 162.6456 219.2516  1.00271327 29128
DIRECTV 15              
1 40663U 15026A   22338.37450269 -.00000093  00000+0  00000+0 0  9998
2 40663   0.0159  44.5048 0000124   0.8879  59.7470  1.00269881 27523
SKY MEXICO-1            
1 40664U 15026B   22338.37929676 -.00000225  00000+0  00000+0 0  9999
2 40664   0.0197  34.1948 0002243 221.9390 234.8300  1.00271633 27513
INTELSAT 34 (IS-34)     
1 40874U 15039A   22338.38391650 -.00000276  00000+0  00000+0 0  9998
2 40874   0.0177 319.1938 0000935 223.9003 332.8187  1.00271725 26689
INTELSAT 31 (IS-31)     
1 41581U 16035A   22338.37598449 -.00000142  00000+0  00000+0 0  9997
2 41581   0.0172 267.6712 0002369 298.9989 266.8046  1.00273735 23753
INTELSAT 36 (IS-36)     
1 41747U 16053A   22338.49621334 -.00000016  00000+0  00000+0 0  9994
2 41747   0.0115 340.7857 0000951  28.6773 310.9728  1.00271297 23008
INTELSAT 33E (IS-33E)   
1 41748U 16053B   22338.40692807  .00000058  00000+0  00000+0 0  9994
2 41748   0.0120  19.8699 0001824 231.0552  28.7663  1.00271116 23303
INTELSAT 32E (IS-32E)   
1 41945U 17007B   22336.80828122 -.00000265  00000+0  00000+0 0  9997
2 41945   0.0171 353.3931 0000621 179.2820 146.7583  1.00271905 21281
INTELSAT 35E (IS-35E)   
1 42818U 17041A   22338.17289014 -.00000230  00000+0  00000+0 0  9990
2 42818   0.0213 331.4131 0001950 283.8580 205.4416  1.00270208 19873
INTELSAT 37E (IS-37E)   
1 42950U 17059A   22338.39115120 -.00000131  00000+0  00000+0 0  9996
2 42950   0.0222  62.7397 0002784 186.7807 306.4879  1.00273130 19127
AZERSPACE 2 (IS-38)     
1 43632U 18074A   22337.61490571  .00000143  00000+0  00000+0 0  9994
2 43632   0.0192 337.6211 0001648 277.0365  84.2437  1.00270394 15497
HORIZONS-3E             
1 43633U 18074B   22338.26368763 -.00000023  00000+0  00000+0 0  9992
2 43633   0.0200  76.8553 0001627 204.2411  55.8716  1.00269788 15398
AT&T T-16               
1 44333U 19034A   22335.43737806 -.00000114  00000+0  00000+0 0  9992
2 44333   0.0487 104.0726 0000406 170.0563 212.7338  1.00274212 12659
INTELSAT 39 (IS-39)     
1 44476U 19049B   22337.97688111  .00000041  00000+0  00000+0 0  9999
2 44476   0.0187 318.5450 0000652 170.7254 357.1364  1.00271469 12190
GALAXY 30 (G-30)        
1 46114U 20056C   22338.62882976  .00000046  00000+0  00000+0 0  9993
2 46114   0.0178 319.1715 0002120 285.3829 290.2571  1.00273359  8355
GALAXY 33               
1 54026U 22128A   22338.61874831  .00000088  00000+0  00000+0 0  9992
2 54026   0.0460 104.3873 0002278 149.9699 268.8176  1.00273290   812
GALAXY 34               
1 54027U 22128B   22337.17832953  .00000065  00000+0  00000+0 0  9997
2 54027   0.0150   7.6212 0001430 287.7100  64.6540  1.00576590   960
2022-153A               
1 54243U 22153A   22338.59679515  .00000141  00000+0  00000+0 0  9990
2 54243   0.0289 134.7794 0001744 173.3731 191.1183  1.00273014   209
2022-153B               
1 54244U 22153B   22338.59679539  .00000141  00000+0  00000+0 0  9997
2 54244   0.0132 323.6331 0002270 314.5372 221.0215  1.00270497   210
